CCSDS_OMM_VERS = 2.0
CREATION_DATE  = 
ORIGINATOR     = 

OBJECT_NAME    = 2025-313AL
OBJECT_ID      = 2025-313AL
CENTER_NAME    = EARTH
REF_FRAME      = TEME
TIME_SYSTEM    = UTC
MEAN_ELEMENT_THEORY = SGP/SGP4

EPOCH          = 2026-01-25T02:39:00.954144
MEAN_MOTION    = 15.21229521
ECCENTRICITY   = .0012169
INCLINATION    = 97.4081
RA_OF_ASC_NODE = 102.1233
ARG_OF_PERICENTER = 137.0321
MEAN_ANOMALY   = 223.1867

EPHEMERIS_TYPE = 0
CLASSIFICATION_TYPE = U
NORAD_CAT_ID   = 67282
ELEMENT_SET_NO = 999
REV_AT_EPOCH   = 419
BSTAR          = .45521E-3
MEAN_MOTION_DOT = .10118E-3
MEAN_MOTION_DDOT = 0

CCSDS_OMM_VERS = 2.0
CREATION_DATE  = 
ORIGINATOR     = 

OBJECT_NAME    = HORS 5
OBJECT_ID      = 2025-313AM
CENTER_NAME    = EARTH
REF_FRAME      = TEME
TIME_SYSTEM    = UTC
MEAN_ELEMENT_THEORY = SGP/SGP4

EPOCH          = 2026-01-25T02:36:13.147200
MEAN_MOTION    = 15.21453097
ECCENTRICITY   = .001193
INCLINATION    = 97.4088
RA_OF_ASC_NODE = 102.1289
ARG_OF_PERICENTER = 136.9843
MEAN_ANOMALY   = 223.2328

EPHEMERIS_TYPE = 0
CLASSIFICATION_TYPE = U
NORAD_CAT_ID   = 67283
ELEMENT_SET_NO = 999
REV_AT_EPOCH   = 419
BSTAR          = .68656E-3
MEAN_MOTION_DOT = .15406E-3
MEAN_MOTION_DDOT = 0

CCSDS_OMM_VERS = 2.0
CREATION_DATE  = 
ORIGINATOR     = 

OBJECT_NAME    = LOBACHEVSKY (RS83S)
OBJECT_ID      = 2025-313AN
CENTER_NAME    = EARTH
REF_FRAME      = TEME
TIME_SYSTEM    = UTC
MEAN_ELEMENT_THEORY = SGP/SGP4

EPOCH          = 2026-01-25T02:39:54.059904
MEAN_MOTION    = 15.21136240
ECCENTRICITY   = .0012091
INCLINATION    = 97.4073
RA_OF_ASC_NODE = 102.1195
ARG_OF_PERICENTER = 136.9128
MEAN_ANOMALY   = 223.3057

EPHEMERIS_TYPE = 0
CLASSIFICATION_TYPE = U
NORAD_CAT_ID   = 67284
ELEMENT_SET_NO = 999
REV_AT_EPOCH   = 419
BSTAR          = .43931E-3
MEAN_MOTION_DOT = .9735E-4
MEAN_MOTION_DDOT = 0

CCSDS_OMM_VERS = 2.0
CREATION_DATE  = 
ORIGINATOR     = 

OBJECT_NAME    = NASBSAT-2
OBJECT_ID      = 2025-313AP
CENTER_NAME    = EARTH
REF_FRAME      = TEME
TIME_SYSTEM    = UTC
MEAN_ELEMENT_THEORY = SGP/SGP4

EPOCH          = 2026-01-25T02:34:33.667104
MEAN_MOTION    = 15.21493888
ECCENTRICITY   = .0011586
INCLINATION    = 97.4065
RA_OF_ASC_NODE = 102.1213
ARG_OF_PERICENTER = 138.3771
MEAN_ANOMALY   = 221.8348

EPHEMERIS_TYPE = 0
CLASSIFICATION_TYPE = U
NORAD_CAT_ID   = 67285
ELEMENT_SET_NO = 999
REV_AT_EPOCH   = 419
BSTAR          = .59154E-3
MEAN_MOTION_DOT = .13275E-3
MEAN_MOTION_DDOT = 0

CCSDS_OMM_VERS = 2.0
CREATION_DATE  = 
ORIGINATOR     = 

OBJECT_NAME    = 2025-313AQ
OBJECT_ID      = 2025-313AQ
CENTER_NAME    = EARTH
REF_FRAME      = TEME
TIME_SYSTEM    = UTC
MEAN_ELEMENT_THEORY = SGP/SGP4

EPOCH          = 2026-01-25T02:33:45.336672
MEAN_MOTION    = 15.21504748
ECCENTRICITY   = .0011225
INCLINATION    = 97.4088
RA_OF_ASC_NODE = 102.1384
ARG_OF_PERICENTER = 133.6241
MEAN_ANOMALY   = 226.5928

EPHEMERIS_TYPE = 0
CLASSIFICATION_TYPE = U
NORAD_CAT_ID   = 67286
ELEMENT_SET_NO = 999
REV_AT_EPOCH   = 419
BSTAR          = .64697E-3
MEAN_MOTION_DOT = .14531E-3
MEAN_MOTION_DDOT = 0

CCSDS_OMM_VERS = 2.0
CREATION_DATE  = 
ORIGINATOR     = 

OBJECT_NAME    = LUCA (RS90S)
OBJECT_ID      = 2025-313AR
CENTER_NAME    = EARTH
REF_FRAME      = TEME
TIME_SYSTEM    = UTC
MEAN_ELEMENT_THEORY = SGP/SGP4

EPOCH          = 2026-01-24T23:22:15.100032
MEAN_MOTION    = 15.21646519
ECCENTRICITY   = .0011121
INCLINATION    = 97.4085
RA_OF_ASC_NODE = 102.0114
ARG_OF_PERICENTER = 135.7610
MEAN_ANOMALY   = 224.4517

EPHEMERIS_TYPE = 0
CLASSIFICATION_TYPE = U
NORAD_CAT_ID   = 67287
ELEMENT_SET_NO = 999
REV_AT_EPOCH   = 417
BSTAR          = .72686E-3
MEAN_MOTION_DOT = .16405E-3
MEAN_MOTION_DDOT = 0

CCSDS_OMM_VERS = 2.0
CREATION_DATE  = 
ORIGINATOR     = 

OBJECT_NAME    = 2025-313AS
OBJECT_ID      = 2025-313AS
CENTER_NAME    = EARTH
REF_FRAME      = TEME
TIME_SYSTEM    = UTC
MEAN_ELEMENT_THEORY = SGP/SGP4

EPOCH          = 2026-01-25T02:34:36.480288
MEAN_MOTION    = 15.21397788
ECCENTRICITY   = .0013022
INCLINATION    = 97.4076
RA_OF_ASC_NODE = 102.1328
ARG_OF_PERICENTER = 128.3315
MEAN_ANOMALY   = 231.9093

EPHEMERIS_TYPE = 0
CLASSIFICATION_TYPE = U
NORAD_CAT_ID   = 67288
ELEMENT_SET_NO = 999
REV_AT_EPOCH   = 419
BSTAR          = .45431E-3
MEAN_MOTION_DOT = .10151E-3
MEAN_MOTION_DDOT = 0

CCSDS_OMM_VERS = 2.0
CREATION_DATE  = 
ORIGINATOR     = 

OBJECT_NAME    = NASBSAT-1
OBJECT_ID      = 2025-313AT
CENTER_NAME    = EARTH
REF_FRAME      = TEME
TIME_SYSTEM    = UTC
MEAN_ELEMENT_THEORY = SGP/SGP4

EPOCH          = 2026-01-25T02:28:12.553248
MEAN_MOTION    = 15.21919232
ECCENTRICITY   = .0010866
INCLINATION    = 97.4086
RA_OF_ASC_NODE = 102.1447
ARG_OF_PERICENTER = 135.7658
MEAN_ANOMALY   = 224.4448

EPHEMERIS_TYPE = 0
CLASSIFICATION_TYPE = U
NORAD_CAT_ID   = 67289
ELEMENT_SET_NO = 999
REV_AT_EPOCH   = 419
BSTAR          = .10283E-2
MEAN_MOTION_DOT = .23444E-3
MEAN_MOTION_DDOT = 0

CCSDS_OMM_VERS = 2.0
CREATION_DATE  = 
ORIGINATOR     = 

OBJECT_NAME    = SAKHACUBE-CHOLBON (RS18S)
OBJECT_ID      = 2025-313AU
CENTER_NAME    = EARTH
REF_FRAME      = TEME
TIME_SYSTEM    = UTC
MEAN_ELEMENT_THEORY = SGP/SGP4

EPOCH          = 2026-01-25T02:29:26.507328
MEAN_MOTION    = 15.21760801
ECCENTRICITY   = .0010817
INCLINATION    = 97.4084
RA_OF_ASC_NODE = 102.1425
ARG_OF_PERICENTER = 134.8361
MEAN_ANOMALY   = 225.3756

EPHEMERIS_TYPE = 0
CLASSIFICATION_TYPE = U
NORAD_CAT_ID   = 67290
ELEMENT_SET_NO = 999
REV_AT_EPOCH   = 419
BSTAR          = .76346E-3
MEAN_MOTION_DOT = .17293E-3
MEAN_MOTION_DDOT = 0

CCSDS_OMM_VERS = 2.0
CREATION_DATE  = 
ORIGINATOR     = 

OBJECT_NAME    = QMR-KWT-2 (RS95S)
OBJECT_ID      = 2025-313AV
CENTER_NAME    = EARTH
REF_FRAME      = TEME
TIME_SYSTEM    = UTC
MEAN_ELEMENT_THEORY = SGP/SGP4

EPOCH          = 2026-01-25T02:27:48.571200
MEAN_MOTION    = 15.21927437
ECCENTRICITY   = .0010593
INCLINATION    = 97.4084
RA_OF_ASC_NODE = 102.1446
ARG_OF_PERICENTER = 134.9443
MEAN_ANOMALY   = 225.2654

EPHEMERIS_TYPE = 0
CLASSIFICATION_TYPE = U
NORAD_CAT_ID   = 67291
ELEMENT_SET_NO = 999
REV_AT_EPOCH   = 419
BSTAR          = .10783E-2
MEAN_MOTION_DOT = .24596E-3
MEAN_MOTION_DDOT = 0

CCSDS_OMM_VERS = 2.0
CREATION_DATE  = 
ORIGINATOR     = 

OBJECT_NAME    = SITRO-AIS-64
OBJECT_ID      = 2025-313AW
CENTER_NAME    = EARTH
REF_FRAME      = TEME
TIME_SYSTEM    = UTC
MEAN_ELEMENT_THEORY = SGP/SGP4

EPOCH          = 2026-01-25T02:26:59.052768
MEAN_MOTION    = 15.21860366
ECCENTRICITY   = .0010496
INCLINATION    = 97.4089
RA_OF_ASC_NODE = 102.1468
ARG_OF_PERICENTER = 134.6499
MEAN_ANOMALY   = 225.5594

EPHEMERIS_TYPE = 0
CLASSIFICATION_TYPE = U
NORAD_CAT_ID   = 67292
ELEMENT_SET_NO = 999
REV_AT_EPOCH   = 419
BSTAR          = .78453E-3
MEAN_MOTION_DOT = .17824E-3
MEAN_MOTION_DDOT = 0

CCSDS_OMM_VERS = 2.0
CREATION_DATE  = 
ORIGINATOR     = 

OBJECT_NAME    = SCORPION (RS89S)
OBJECT_ID      = 2025-313AX
CENTER_NAME    = EARTH
REF_FRAME      = TEME
TIME_SYSTEM    = UTC
MEAN_ELEMENT_THEORY = SGP/SGP4

EPOCH          = 2026-01-25T02:31:29.037216
MEAN_MOTION    = 15.21464062
ECCENTRICITY   = .0012509
INCLINATION    = 97.4087
RA_OF_ASC_NODE = 102.1389
ARG_OF_PERICENTER = 126.1599
MEAN_ANOMALY   = 234.0796

EPHEMERIS_TYPE = 0
CLASSIFICATION_TYPE = U
NORAD_CAT_ID   = 67293
ELEMENT_SET_NO = 999
REV_AT_EPOCH   = 419
BSTAR          = .33217E-3
MEAN_MOTION_DOT = .7414E-4
MEAN_MOTION_DDOT = 0

