2025-313AL              
1 67282U 25313AL  26025.11042771  .00010118  00000+0  45521-3 0  9997
2 67282  97.4081 102.1233 0012169 137.0321 223.1867 15.21229521  4197
HORS 5                  
1 67283U 25313AM  26025.10848550  .00015406  00000+0  68656-3 0  9995
2 67283  97.4088 102.1289 0011930 136.9843 223.2328 15.21453097  4198
LOBACHEVSKY (RS83S)     
1 67284U 25313AN  26025.11104236  .00009735  00000+0  43931-3 0  9990
2 67284  97.4073 102.1195 0012091 136.9128 223.3057 15.21136240  4192
NASBSAT-2               
1 67285U 25313AP  26025.10733411  .00013275  00000+0  59154-3 0  9991
2 67285  97.4065 102.1213 0011586 138.3771 221.8348 15.21493888  4193
2025-313AQ              
1 67286U 25313AQ  26025.10677473  .00014531  00000+0  64697-3 0  9991
2 67286  97.4088 102.1384 0011225 133.6241 226.5928 15.21504748  4192
LUCA (RS90S)            
1 67287U 25313AR  26024.97378588  .00016405  00000+0  72686-3 0  9990
2 67287  97.4085 102.0114 0011121 135.7610 224.4517 15.21646519  4170
2025-313AS              
1 67288U 25313AS  26025.10736667  .00010151  00000+0  45431-3 0  9993
2 67288  97.4076 102.1328 0013022 128.3315 231.9093 15.21397788  4196
NASBSAT-1               
1 67289U 25313AT  26025.10292307  .00023444  00000+0  10283-2 0  9997
2 67289  97.4086 102.1447 0010866 135.7658 224.4448 15.21919232  4190
SAKHACUBE-CHOLBON (RS1*)
1 67290U 25313AU  26025.10377902  .00017293  00000+0  76346-3 0  9992
2 67290  97.4084 102.1425 0010817 134.8361 225.3756 15.21760801  4191
QMR-KWT-2 (RS95S)       
1 67291U 25313AV  26025.10264550  .00024596  00000+0  10783-2 0  9993
2 67291  97.4084 102.1446 0010593 134.9443 225.2654 15.21927437  4194
SITRO-AIS-64            
1 67292U 25313AW  26025.10207237  .00017824  00000+0  78453-3 0  9998
2 67292  97.4089 102.1468 0010496 134.6499 225.5594 15.21860366  4197
SCORPION (RS89S)        
1 67293U 25313AX  26025.10519719  .00007414  00000+0  33217-3 0  9993
2 67293  97.4087 102.1389 0012509 126.1599 234.0796 15.21464062  4194
